start=new Date('2022-01-20T00:00:00.000Z').valueOf();
sats=[{"MEAN_MOTION_DOT":"0.00034706","OBJECT_ID":"2020-012BF","REV_AT_EPOCH":"10822","NORAD_CAT_ID":"45231","MEAN_MOTION":"15.76838643","DECAY_DATE":null,"APOAPSIS":"343.820","TLE_LINE1":"1 45231U 20012BF  22019.63354809  .00034706  00000-0  21389-3 0  9998","MEAN_ANOMALY":"33.0690","OBJECT_NAME":"STARLINK-1229","MEAN_MOTION_DDOT":"0.0000000000000","PERIOD":"91.322","CENTER_NAME":"EARTH","CLASSIFICATION_TYPE":"U","LAUNCH_DATE":"2020-02-17","MEAN_ELEMENT_THEORY":"SGP4","COUNTRY_CODE":"US","INCLINATION":"53.0295","ECCENTRICITY":"0.00065710","EPHEMERIS_TYPE":"0","RA_OF_ASC_NODE":"205.8592","GP_ID":"194197890","SEMIMAJOR_AXIS":"6717.541","BSTAR":"0.00021389000000","REF_FRAME":"TEME","ELEMENT_SET_NO":"999","OBJECT_TYPE":"PAYLOAD","EPOCH":"2022-01-19T15:12:18.554976","RCS_SIZE":"LARGE","TIME_SYSTEM":"UTC","FILE":"3277718","PERIAPSIS":"334.992","TLE_LINE2":"2 45231  53.0295 205.8592 0006571 326.9918  33.0690 15.76838643108224","SITE":"AFETR","ARG_OF_PERICENTER":"326.9918"},{"MEAN_MOTION_DOT":"0.00003074","REV_AT_EPOCH":"10778","OBJECT_ID":"2020-012BG","NORAD_CAT_ID":"45232","DECAY_DATE":null,"MEAN_MOTION":"15.06387900","MEAN_ANOMALY":"299.6214","TLE_LINE1":"1 45232U 20012BG  22019.51849067  .00003074  00000-0  22525-3 0  9998","OBJECT_NAME":"STARLINK-1235","APOAPSIS":"548.338","PERIOD":"95.593","CENTER_NAME":"EARTH","MEAN_MOTION_DDOT":"0.0000000000000","MEAN_ELEMENT_THEORY":"SGP4","CLASSIFICATION_TYPE":"U","LAUNCH_DATE":"2020-02-17","COUNTRY_CODE":"US","INCLINATION":"53.0554","ECCENTRICITY":"0.00015700","EPHEMERIS_TYPE":"0","RA_OF_ASC_NODE":"306.0359","GP_ID":"194190115","BSTAR":"0.00022525000000","SEMIMAJOR_AXIS":"6925.386","ELEMENT_SET_NO":"999","REF_FRAME":"TEME","EPOCH":"2022-01-19T12:26:37.593888","OBJECT_TYPE":"PAYLOAD","RCS_SIZE":"LARGE","TIME_SYSTEM":"UTC","FILE":"3277432","ARG_OF_PERICENTER":"60.4932","TLE_LINE2":"2 45232  53.0554 306.0359 0001570  60.4932 299.6214 15.06387900107788","SITE":"AFETR","PERIAPSIS":"546.163"},{"DECAY_DATE":null,"MEAN_MOTION":"15.06385393","NORAD_CAT_ID":"45233","MEAN_ANOMALY":"294.7196","TLE_LINE1":"1 45233U 20012BH  22019.56457179  .00002473  00000-0  18492-3 0  9993","OBJECT_NAME":"STARLINK-1238","APOAPSIS":"548.148","PERIOD":"95.593","CENTER_NAME":"EARTH","MEAN_MOTION_DDOT":"0.0000000000000","MEAN_ELEMENT_THEORY":"SGP4","CLASSIFICATION_TYPE":"U","LAUNCH_DATE":"2020-02-17","REV_AT_EPOCH":"10656","OBJECT_ID":"2020-012BH","MEAN_MOTION_DOT":"0.00002473","ELEMENT_SET_NO":"999","REF_FRAME":"TEME","RCS_SIZE":"LARGE","EPOCH":"2022-01-19T13:32:59.002656","OBJECT_TYPE":"PAYLOAD","FILE":"3277718","TIME_SYSTEM":"UTC","ARG_OF_PERICENTER":"65.3926","PERIAPSIS":"546.369","TLE_LINE2":"2 45233  53.0569 325.8347 0001284  65.3926 294.7196 15.06385393106564","SITE":"AFETR","INCLINATION":"53.0569","COUNTRY_CODE":"US","ECCENTRICITY":"0.00012840","EPHEMERIS_TYPE":"0","BSTAR":"0.00018492000000","SEMIMAJOR_AXIS":"6925.393","GP_ID":"194198309","RA_OF_ASC_NODE":"325.8347"},{"BSTAR":"0.00020280000000","SEMIMAJOR_AXIS":"6925.368","GP_ID":"194197907","RA_OF_ASC_NODE":"345.6483","EPHEMERIS_TYPE":"0","ECCENTRICITY":"0.00016120","INCLINATION":"53.0550","COUNTRY_CODE":"US","ARG_OF_PERICENTER":"62.9125","TLE_LINE2":"2 45234  53.0550 345.6483 0001612  62.9125 297.2028 15.06393806106329","SITE":"AFETR","PERIAPSIS":"546.116","FILE":"3277727","TIME_SYSTEM":"UTC","RCS_SIZE":"LARGE","EPOCH":"2022-01-19T14:28:42.210912","OBJECT_TYPE":"PAYLOAD","ELEMENT_SET_NO":"999","REF_FRAME":"TEME","REV_AT_EPOCH":"10632","OBJECT_ID":"2020-012BJ","MEAN_MOTION_DOT":"0.00002740","MEAN_ELEMENT_THEORY":"SGP4","LAUNCH_DATE":"2020-02-17","CLASSIFICATION_TYPE":"U","PERIOD":"95.593","CENTER_NAME":"EARTH","MEAN_MOTION_DDOT":"0.0000000000000","MEAN_ANOMALY":"297.2028","TLE_LINE1":"1 45234U 20012BJ  22019.60326633  .00002740  00000-0  20280-3 0  9994","OBJECT_NAME":"STARLINK-1243","APOAPSIS":"548.349","DECAY_DATE":null,"MEAN_MOTION":"15.06393806","NORAD_CAT_ID":"45234"},{"OBJECT_TYPE":"PAYLOAD","EPOCH":"2022-01-19T14:07:28.250688","RCS_SIZE":"LARGE","REF_FRAME":"TEME","ELEMENT_SET_NO":"999","PERIAPSIS":"546.189","TLE_LINE2":"2 45235  53.0568 345.7392 0001524  60.2399 299.8741 15.06389854107256","SITE":"AFETR","ARG_OF_PERICENTER":"60.2399","TIME_SYSTEM":"UTC","FILE":"3277432","ECCENTRICITY":"0.00015240","COUNTRY_CODE":"US","INCLINATION":"53.0568","GP_ID":"194191367","RA_OF_ASC_NODE":"345.7392","SEMIMAJOR_AXIS":"6925.380","BSTAR":"0.00017608000000","EPHEMERIS_TYPE":"0","APOAPSIS":"548.300","MEAN_ANOMALY":"299.8741","TLE_LINE1":"1 45235U 20012BK  22019.58852142  .00002341  00000-0  17608-3 0  9998","OBJECT_NAME":"STARLINK-1246","NORAD_CAT_ID":"45235","MEAN_MOTION":"15.06389854","DECAY_DATE":null,"CLASSIFICATION_TYPE":"U","LAUNCH_DATE":"2020-02-17","MEAN_ELEMENT_THEORY":"SGP4","MEAN_MOTION_DDOT":"0.0000000000000","CENTER_NAME":"EARTH","PERIOD":"95.593","MEAN_MOTION_DOT":"0.00002341","OBJECT_ID":"2020-012BK","REV_AT_EPOCH":"10725"},{"MEAN_MOTION_DOT":"0.00002451","REV_AT_EPOCH":"10777","OBJECT_ID":"2020-012BL","MEAN_ELEMENT_THEORY":"SGP4","CLASSIFICATION_TYPE":"U","LAUNCH_DATE":"2020-02-17","PERIOD":"95.593","CENTER_NAME":"EARTH","MEAN_MOTION_DDOT":"0.0000000000000","MEAN_ANOMALY":"290.6540","TLE_LINE1":"1 45236U 20012BL  22019.50375698  .00002451  00000-0  18349-3 0  9992","OBJECT_NAME":"STARLINK-1247","APOAPSIS":"548.389","NORAD_CAT_ID":"45236","DECAY_DATE":null,"MEAN_MOTION":"15.06382634","GP_ID":"194189616","RA_OF_ASC_NODE":"306.1048","BSTAR":"0.00018349000000","SEMIMAJOR_AXIS":"6925.402","EPHEMERIS_TYPE":"0","ECCENTRICITY":"0.00016210","COUNTRY_CODE":"US","INCLINATION":"53.0547","ARG_OF_PERICENTER":"69.4623","SITE":"AFETR","TLE_LINE2":"2 45236  53.0547 306.1048 0001621  69.4623 290.6540 15.06382634107774","PERIAPSIS":"546.144","TIME_SYSTEM":"UTC","FILE":"3277432","EPOCH":"2022-01-19T12:05:24.603072","OBJECT_TYPE":"PAYLOAD","RCS_SIZE":"LARGE","ELEMENT_SET_NO":"999","REF_FRAME":"TEME"},{"MEAN_MOTION":"15.06396299","DECAY_DATE":null,"NORAD_CAT_ID":"45237","APOAPSIS":"548.269","MEAN_ANOMALY":"293.0462","TLE_LINE1":"1 45237U 20012BM  22019.52586370  .00006357  00000-0  44535-3 0  9991","OBJECT_NAME":"STARLINK-1270","MEAN_MOTION_DDOT":"0.0000000000000","PERIOD":"95.592","CENTER_NAME":"EARTH","CLASSIFICATION_TYPE":"U","LAUNCH_DATE":"2020-02-17","MEAN_ELEMENT_THEORY":"SGP4","OBJECT_ID":"2020-012BM","REV_AT_EPOCH":"10778","MEAN_MOTION_DOT":"0.00006357","REF_FRAME":"TEME","ELEMENT_SET_NO":"999","RCS_SIZE":"LARGE","OBJECT_TYPE":"PAYLOAD","EPOCH":"2022-01-19T12:37:14.623680","FILE":"3277432","TIME_SYSTEM":"UTC","PERIAPSIS":"546.181","TLE_LINE2":"2 45237  53.0555 306.0219 0001507  67.0686 293.0462 15.06396299107782","SITE":"AFETR","ARG_OF_PERICENTER":"67.0686","INCLINATION":"53.0555","COUNTRY_CODE":"US","ECCENTRICITY":"0.00015070","EPHEMERIS_TYPE":"0","SEMIMAJOR_AXIS":"6925.360","BSTAR":"0.00044535000000","GP_ID":"194189866","RA_OF_ASC_NODE":"306.0219"},{"OBJECT_ID":"2020-019A","REV_AT_EPOCH":"10252","MEAN_MOTION_DOT":"0.00001003","MEAN_MOTION_DDOT":"0.0000000000000","PERIOD":"95.593","CENTER_NAME":"EARTH","CLASSIFICATION_TYPE":"U","LAUNCH_DATE":"2020-03-18","MEAN_ELEMENT_THEORY":"SGP4","MEAN_MOTION":"15.06387248","DECAY_DATE":null,"NORAD_CAT_ID":"45360","APOAPSIS":"548.152","OBJECT_NAME":"STARLINK-1279","TLE_LINE1":"1 45360U 20019A   22019.55074570  .00001003  00000-0  86262-4 0  9999","MEAN_ANOMALY":"288.9037","EPHEMERIS_TYPE":"0","SEMIMAJOR_AXIS":"6925.388","BSTAR":"0.00008626200000","RA_OF_ASC_NODE":"75.8952","GP_ID":"194199348","INCLINATION":"53.0551","COUNTRY_CODE":"US","ECCENTRICITY":"0.00012980","FILE":"3277802","TIME_SYSTEM":"UTC","PERIAPSIS":"546.354","TLE_LINE2":"2 45360  53.0551  75.8952 0001298  71.2093 288.9037 15.06387248102528","SITE":"AFETR","ARG_OF_PERICENTER":"71.2093","REF_FRAME":"TEME","ELEMENT_SET_NO":"999","RCS_SIZE":"LARGE","OBJECT_TYPE":"PAYLOAD","EPOCH":"2022-01-19T13:13:04.428480"},{"NORAD_CAT_ID":"45361","DECAY_DATE":null,"MEAN_MOTION":"15.06398523","TLE_LINE1":"1 45361U 20019B   22019.47240417  .00003755  00000-0  27086-3 0  9990","MEAN_ANOMALY":"263.7299","OBJECT_NAME":"STARLINK-1301","APOAPSIS":"548.134","CENTER_NAME":"EARTH","PERIOD":"95.592","MEAN_MOTION_DDOT":"0.0000000000000","MEAN_ELEMENT_THEORY":"SGP4","LAUNCH_DATE":"2020-03-18","CLASSIFICATION_TYPE":"U","MEAN_MOTION_DOT":"0.00003755","REV_AT_EPOCH":"10238","OBJECT_ID":"2020-019B","ELEMENT_SET_NO":"999","REF_FRAME":"TEME","EPOCH":"2022-01-19T11:20:15.720288","OBJECT_TYPE":"PAYLOAD","RCS_SIZE":"LARGE","TIME_SYSTEM":"UTC","FILE":"3277432","ARG_OF_PERICENTER":"96.3841","TLE_LINE2":"2 45361  53.0537  86.2455 0001322  96.3841 263.7299 15.06398523102387","SITE":"AFETR","PERIAPSIS":"546.303","COUNTRY_CODE":"US","INCLINATION":"53.0537","ECCENTRICITY":"0.00013220","EPHEMERIS_TYPE":"0","RA_OF_ASC_NODE":"86.2455","GP_ID":"194191381","BSTAR":"0.00027086000000","SEMIMAJOR_AXIS":"6925.353"},{"TLE_LINE1":"1 45362U 20019C   22019.51849012  .00003792  00000-0  27342-3 0  9998","MEAN_ANOMALY":"276.9923","OBJECT_NAME":"STARLINK-1306","APOAPSIS":"548.109","NORAD_CAT_ID":"45362","DECAY_DATE":null,"MEAN_MOTION":"15.06390150","MEAN_ELEMENT_THEORY":"SGP4","CLASSIFICATION_TYPE":"U","LAUNCH_DATE":"2020-03-18","PERIOD":"95.593","CENTER_NAME":"EARTH","MEAN_MOTION_DDOT":"0.0000000000000","MEAN_MOTION_DOT":"0.00003792","REV_AT_EPOCH":"10211","OBJECT_ID":"2020-019C","EPOCH":"2022-01-19T12:26:37.546368","OBJECT_TYPE":"PAYLOAD","RCS_SIZE":"LARGE","ELEMENT_SET_NO":"999","REF_FRAME":"TEME","ARG_OF_PERICENTER":"83.1209","SITE":"AFETR","TLE_LINE2":"2 45362  53.0539 106.0392 0001250  83.1209 276.9923 15.06390150102112","PERIAPSIS":"546.378","TIME_SYSTEM":"UTC","FILE":"3277805","ECCENTRICITY":"0.00012500","COUNTRY_CODE":"US","INCLINATION":"53.0539","GP_ID":"194199381","RA_OF_ASC_NODE":"106.0392","BSTAR":"0.00027342000000","SEMIMAJOR_AXIS":"6925.379","EPHEMERIS_TYPE":"0"}];
